NORAD_CAT_ID,OBJECT_NAME,OBJECT_TYPE,EPOCH,MEAN_MOTION,ECCENTRICITY,INCLINATION,RA_OF_ASC_NODE,ARG_OF_PERICENTER,MEAN_ANOMALY,BSTAR,MEAN_MOTION_DOT,MEAN_MOTION_DDOT,TLE_LINE0,TLE_LINE1,TLE_LINE2,SEMIMAJOR_AXIS,PERIOD,APOGEE,PERIGEE,DECAYED
53623.0,STARLINK-4573,PAYLOAD,2023-11-02 12:41:45,15.08840449,0.0001332,53.2152,126.4313,92.352,267.7624,6.7161e-05,7.81e-06,0.0,0 STARLINK-4573,1 53623U 22104AM  23306.52900358  .00000781  00000-0  67161-4 0  9995,2 53623  53.2152 126.4313 0001332  92.3520 267.7624 15.08840449 65513,6917.879,95.438,540.665,538.823,0.0
53623.0,STARLINK-4573,PAYLOAD,2023-11-02 22:14:04,15.08842814,0.0001307,53.2156,124.6467,92.3862,267.728,8.2264e-05,1.022e-05,0.0,0 STARLINK-4573,1 53623U 22104AM  23306.92644219  .00001022  00000-0  82264-4 0  9990,2 53623  53.2156 124.6467 0001307  92.3862 267.7280 15.08842814 66256,6917.872,95.437,540.641,538.833,0.0
53623.0,STARLINK-4573,PAYLOAD,2023-11-03 12:32:33,15.08837414,0.0001268,53.2155,121.9705,91.375,268.7387,-9.2458e-07,-3.03e-06,0.0,0 STARLINK-4573,1 53623U 22104AM  23307.52260513 -.00000303  00000-0 -92458-6 0  9999,2 53623  53.2155 121.9705 0001268  91.3750 268.7387 15.08837414 66340,6917.888,95.438,540.63,538.876,0.0
53623.0,STARLINK-4573,PAYLOAD,2023-11-03 20:29:28,15.08841816,0.0001303,53.2162,120.4837,88.8054,271.3087,4.4642e-05,4.23e-06,0.0,0 STARLINK-4573,1 53623U 22104AM  23307.85380250  .00000423  00000-0  44642-4 0  9997,2 53623  53.2162 120.4837 0001303  88.8054 271.3087 15.08841816 65714,6917.875,95.437,540.641,538.838,0.0
53623.0,STARLINK-4573,PAYLOAD,2023-11-03 22:04:51,15.0884543,0.0001467,53.2169,120.1864,98.7256,261.3903,5.6342e-05,6.09e-06,0.0,0 STARLINK-4573,1 53623U 22104AM  23307.92004258  .00000609  00000-0  56342-4 0  9992,2 53623  53.2169 120.1864 0001467  98.7256 261.3903 15.08845430 66402,6917.864,95.437,540.744,538.714,0.0
53623.0,STARLINK-4573,PAYLOAD,2023-11-04 04:26:24,15.0883668,0.0001245,53.217,118.9968,99.3141,260.7992,9.4655e-05,1.219e-05,0.0,0 STARLINK-4573,1 53623U 22104AM  23308.18500810  .00001219  00000-0  94655-4 0  9993,2 53623  53.2170 118.9968 0001245  99.3141 260.7992 15.08836680 65764,6917.891,95.438,540.617,538.894,0.0
53623.0,STARLINK-4573,PAYLOAD,2023-11-04 18:44:52,15.08857014,0.0001217,53.2169,116.3204,100.5907,259.5222,-0.00022597,-3.884e-05,0.0,0 STARLINK-4573,1 53623U 22104AM  23308.78116302 -.00003884  00000-0 -22597-3 0  9995,2 53623  53.2169 116.3204 0001217 100.5907 259.5222 15.08857014 65857,6917.828,95.436,540.535,538.851,0.0
53623.0,STARLINK-4573,PAYLOAD,2023-11-05 18:35:39,15.08855151,0.0001281,53.2161,111.8601,88.4991,271.6148,0.00028704,4.285e-05,0.0,0 STARLINK-4573,1 53623U 22104AM  23309.77475760  .00004285  00000-0  28704-3 0  9991,2 53623  53.2161 111.8601 0001281  88.4991 271.6148 15.08855151 66682,6917.834,95.437,540.585,538.813,0.0
53623.0,STARLINK-4573,PAYLOAD,2023-11-06 10:29:30,15.0885048,0.000144,53.2156,108.8875,94.2793,265.8363,0.00017296,2.467e-05,0.0,0 STARLINK-4573,1 53623U 22104AM  23310.43715661  .00002467  00000-0  17296-3 0  9997,2 53623  53.2156 108.8875 0001440  94.2793 265.8363 15.08850480 66108,6917.848,95.437,540.71,538.717,0.0
53623.0,STARLINK-4573,PAYLOAD,2023-11-06 16:51:02,15.0885022,0.000131,53.2152,107.6971,99.0237,261.0903,0.0001536,2.158e-05,0.0,0 STARLINK-4573,1 53623U 22104AM  23310.70211473  .00002158  00000-0  15360-3 0  9996,2 53623  53.2152 107.6971 0001310  99.0237 261.0903 15.08850220 66829,6917.849,95.437,540.62,538.808,0.0
53623.0,STARLINK-4573,PAYLOAD,2023-11-07 10:20:17,15.08837522,0.0001368,53.2157,104.4254,84.8691,275.2458,-0.00018273,-3.195e-05,0.0,0 STARLINK-4573,1 53623U 22104AM  23311.43076277 -.00003195  00000-0 -18273-3 0  9998,2 53623  53.2157 104.4254 0001368  84.8691 275.2458 15.08837522 66251,6917.888,95.438,540.699,538.807,0.0
53623.0,STARLINK-4573,PAYLOAD,2023-11-07 16:41:51,15.08833891,0.0001474,53.2181,103.2359,71.1231,288.9921,-0.00012283,-2.242e-05,0.0,0 STARLINK-4573,1 53623U 22104AM  23311.69573310 -.00002242  00000-0 -12283-3 0  9993,2 53623  53.2181 103.2359 0001474  71.1231 288.9921 15.08833891 66293,6917.899,95.438,540.784,538.744,0.0
53623.0,STARLINK-4573,PAYLOAD,2023-11-08 03:49:32,15.08841819,0.0001338,53.2179,101.156,82.5539,277.5605,-8.9652e-05,-1.715e-05,0.0,0 STARLINK-4573,1 53623U 22104AM  23312.15940698 -.00001715  00000-0 -89652-4 0  9991,2 53623  53.2179 101.1560 0001338  82.5539 277.5605 15.08841819 66367,6917.875,95.437,540.665,538.814,0.0
53623.0,STARLINK-4573,PAYLOAD,2023-11-08 13:21:50,15.08848917,0.0001418,53.2179,99.3716,74.9591,285.1558,0.00018572,2.67e-05,0.0,0 STARLINK-4573,1 53623U 22104AM  23312.55683768  .00002670  00000-0  18572-3 0  9998,2 53623  53.2179  99.3716 0001418  74.9591 285.1558 15.08848917 67101,6917.853,95.437,540.699,538.737,0.0
53623.0,STARLINK-4573,PAYLOAD,2023-11-08 16:32:37,15.08848651,0.0001248,53.218,98.7781,80.0275,280.0858,-5.035e-05,-1.089e-05,0.0,0 STARLINK-4573,1 53623U 22104AM  23312.68932278 -.00001089  00000-0 -50350-4 0  9991,2 53623  53.2180  98.7781 0001248  80.0275 280.0858 15.08848651 67120,6917.854,95.437,540.582,538.856,0.0
53623.0,STARLINK-4573,PAYLOAD,2023-11-09 13:12:39,15.08830056,0.0001536,53.2187,94.9155,67.49,292.6255,0.00021172,3.082e-05,0.0,0 STARLINK-4573,1 53623U 22104AM  23313.55045215  .00003082  00000-0  21172-3 0  9996,2 53623  53.2187  94.9155 0001536  67.4900 292.6255 15.08830056 67258,6917.911,95.438,540.838,538.713,0.0
53623.0,STARLINK-4573,PAYLOAD,2023-11-09 16:23:25,15.08834338,0.0001339,53.2182,94.3172,83.3717,276.7428,0.00020267,2.939e-05,0.0,0 STARLINK-4573,1 53623U 22104AM  23313.68292941  .00002939  00000-0  20267-3 0  9994,2 53623  53.2182  94.3172 0001339  83.3717 276.7428 15.08834338 66598,6917.898,95.438,540.689,538.836,0.0
53623.0,STARLINK-4573,PAYLOAD,2023-11-10 01:55:44,15.08826574,0.0001247,53.2175,92.5317,78.9398,281.1735,0.00020476,2.971e-05,0.0,0 STARLINK-4573,1 53623U 22104AM  23314.08037544  .00002971  00000-0  20476-3 0  9993,2 53623  53.2175  92.5317 0001247  78.9398 281.1735 15.08826574 66655,6917.921,95.438,540.649,538.924,0.0
53623.0,STARLINK-4573,PAYLOAD,2023-11-10 14:38:49,15.08837257,0.0001482,53.2188,90.1557,89.9994,270.1168,3.2642e-05,2.32e-06,0.0,0 STARLINK-4573,1 53623U 22104AM  23314.61029583  .00000232  00000-0  32642-4 0  9993,2 53623  53.2188  90.1557 0001482  89.9994 270.1168 15.08837257 67417,6917.889,95.438,540.779,538.729,0.0
53623.0,STARLINK-4573,PAYLOAD,2023-11-10 16:14:12,15.08839484,0.000152,53.2187,89.8582,90.1935,269.9231,4.1076e-05,3.66e-06,0.0,0 STARLINK-4573,1 53623U 22104AM  23314.67653414  .00000366  00000-0  41076-4 0  9994,2 53623  53.2187  89.8582 0001520  90.1935 269.9231 15.08839484 66747,6917.882,95.438,540.798,538.695,0.0
53623.0,STARLINK-4573,PAYLOAD,2023-11-11 14:29:36,15.08841379,0.0001265,53.2174,85.6945,92.6336,267.4801,2.7697e-05,1.53e-06,0.0,0 STARLINK-4573,1 53623U 22104AM  23315.60389383  .00000153  00000-0  27697-4 0  9996,2 53623  53.2174  85.6945 0001265  92.6336 267.4801 15.08841379 67561,6917.876,95.437,540.616,538.866,0.0
53623.0,STARLINK-4573,PAYLOAD,2023-11-12 12:45:00,15.08838645,0.0001134,53.2173,81.5313,84.1855,275.9267,2.4991e-05,1.1e-06,0.0,0 STARLINK-4573,1 53623U 22104AM  23316.53125638  .00000110  00000-0  24991-4 0  9997,2 53623  53.2173  81.5313 0001134  84.1855 275.9267 15.08838645 67709,6917.885,95.438,540.534,538.965,0.0
53623.0,STARLINK-4573,PAYLOAD,2023-11-12 15:55:46,15.08839766,0.0001192,53.2176,80.9364,92.9374,267.1754,5.253e-05,5.48e-06,0.0,0 STARLINK-4573,1 53623U 22104AM  23316.66373587  .00000548  00000-0  52530-4 0  9994,2 53623  53.2176  80.9364 0001192  92.9374 267.1754 15.08839766 67044,6917.881,95.438,540.571,538.921,0.0
53623.0,STARLINK-4573,PAYLOAD,2023-11-13 14:11:10,15.08846114,0.0001221,53.2181,76.7721,92.9454,267.1678,8.1675e-05,1.012e-05,0.0,0 STARLINK-4573,1 53623U 22104AM  23317.59108979  .00001012  00000-0  81675-4 0  9997,2 53623  53.2181  76.7721 0001221  92.9454 267.1678 15.08846114 67862,6917.862,95.437,540.571,538.882,0.0
53623.0,STARLINK-4573,PAYLOAD,2023-11-14 01:18:52,15.08843877,0.0001214,53.2182,74.6922,88.7639,271.3492,9.767e-05,1.267e-05,0.0,0 STARLINK-4573,1 53623U 22104AM  23318.05476977  .00001267  00000-0  97670-4 0  9999,2 53623  53.2182  74.6922 0001214  88.7639 271.3492 15.08843877 67250,6917.869,95.437,540.573,538.894,0.0
53623.0,STARLINK-4573,PAYLOAD,2023-11-14 10:51:11,15.08833291,0.0001112,53.2179,72.907,96.0113,264.1006,-4.8784e-05,-1.064e-05,0.0,0 STARLINK-4573,1 53623U 22104AM  23318.45222097 -.00001064  00000-0 -48784-4 0  9994,2 53623  53.2179  72.9070 0001112  96.0113 264.1006 15.08833291 67314,6917.901,95.438,540.535,538.997,0.0
53623.0,STARLINK-4573,PAYLOAD,2023-11-14 14:01:58,15.0883299,0.0001122,53.2182,72.3116,97.8386,262.2734,-5.0885e-05,-1.097e-05,0.0,0 STARLINK-4573,1 53623U 22104AM  23318.58470156 -.00001097  00000-0 -50885-4 0  9990,2 53623  53.2182  72.3116 0001122  97.8386 262.2734 15.08832990 68015,6917.902,95.438,540.543,538.991,0.0
53623.0,STARLINK-4573,PAYLOAD,2023-11-15 12:17:21,15.08849097,0.0001206,53.2181,68.1472,95.6899,264.423,-6.7841e-05,-1.368e-05,0.0,0 STARLINK-4573,1 53623U 22104AM  23319.51205317 -.00001368  00000-0 -67841-4 0  9990,2 53623  53.2181  68.1472 0001206  95.6899 264.4230 15.08849097 67470,6917.853,95.437,540.552,538.883,0.0
53623.0,STARLINK-4573,PAYLOAD,2023-11-16 16:54:18,15.08838418,0.000118,53.2184,62.7947,99.9435,260.169,7.4468e-05,8.97e-06,0.0,0 STARLINK-4573,1 53623U 22104AM  23320.70437524  .00000897  00000-0  74468-4 0  9997,2 53623  53.2184  62.7947 0001180  99.9435 260.1690 15.08838418 67652,6917.885,95.438,540.567,538.934,0.0
53623.0,STARLINK-4573,PAYLOAD,2023-11-17 13:34:19,15.08824317,0.000114,53.2173,58.9302,106.9278,253.184,0.00020609,2.992e-05,0.0,0 STARLINK-4573,1 53623U 22104AM  23321.56550028  .00002992  00000-0  20609-3 0  9992,2 53623  53.2173  58.9302 0001140 106.9278 253.1840 15.08824317 68464,6917.928,95.439,540.582,539.005,0.0
